[{"OBJECT_NAME":"STARLINK-30584","OBJECT_ID":"2023-160Q","EPOCH":"2026-03-09T09:43:07.962528","MEAN_MOTION":15.27583104,"ECCENTRICITY":7.858e-5,"INCLINATION":43.0011,"RA_OF_ASC_NODE":79.3676,"ARG_OF_PERICENTER":240.99,"MEAN_ANOMALY":119.0873,"EPHEMERIS_TYPE":0,"CLASSIFICATION_TYPE":"U","NORAD_CAT_ID":58089,"ELEMENT_SET_NO":999,"REV_AT_EPOCH":13290,"BSTAR":8.0360154e-5,"MEAN_MOTION_DOT":1.95e-5,"MEAN_MOTION_DDOT":0},{"OBJECT_NAME":"AVUM R\/B","OBJECT_ID":"2015-028B","EPOCH":"2026-03-09T15:47:10.915008","MEAN_MOTION":15.38120394,"ECCENTRICITY":0.01316946,"INCLINATION":98.6577,"RA_OF_ASC_NODE":312.3046,"ARG_OF_PERICENTER":250.9525,"MEAN_ANOMALY":107.7413,"EPHEMERIS_TYPE":0,"CLASSIFICATION_TYPE":"U","NORAD_CAT_ID":40698,"ELEMENT_SET_NO":999,"REV_AT_EPOCH":58785,"BSTAR":0.00031736457,"MEAN_MOTION_DOT":0.00015963,"MEAN_MOTION_DDOT":0}]
